ORBCOMM FM06            
1 25118U 97084G   23224.78781417  .00001947  00000+0  64174-3 0  9996
2 25118  45.0168 352.9632 0001759 140.6732  12.9715 14.41178612344111
ORBCOMM FM04            
1 25159U 98007C   23224.67891440  .00001415  00000+0  57590-3 0  9997
2 25159 107.9773 196.3443 0044521 341.3810  18.5699 14.31419773327712
ORBCOMM FM19            
1 25415U 98046C   23225.12476816  .00001221  00000+0  47796-3 0  9994
2 25415  44.9943 124.5050 0002265 100.0490  44.0041 14.34559966307496
ORBCOMM FM05 [-]        
1 25117U 97084F   23225.08144091  .00001658  00000+0  55250-3 0  9994
2 25117  45.0181 351.4347 0002035 111.5159 248.5908 14.41250735344152
ORBCOMM FM07 [-]        
1 25119U 97084H   23224.39093232  .00001644  00000+0  54945-3 0  9994
2 25119  45.0169 355.2697 0002202  83.0589 277.0511 14.41122304344041
ORBCOMM FM03 [-]        
1 25158U 98007B   23224.84988312  .00001333  00000+0  54698-3 0  9995
2 25158 107.9788 193.9417 0049039 343.1975  16.7537 14.31138418327605
ORBCOMM FM17 [-]        
1 25413U 98046A   23224.60163738  .00001058  00000+0  44065-3 0  9994
2 25413  44.9935 193.3607 0001450   1.0894 358.9955 14.32224672306547
ORBCOMM FM18 [-]        
1 25414U 98046B   23224.81029423  .00001376  00000+0  53119-3 0  9993
2 25414  44.9934 124.9001 0003148 118.4609 241.6555 14.34677234307451
